[{"OBJECT_NAME":"STARLINK-34806","OBJECT_ID":"2025-165K","EPOCH":"2026-03-09T22:28:33.330432","MEAN_MOTION":15.05665154,"ECCENTRICITY":3.883e-5,"INCLINATION":97.602,"RA_OF_ASC_NODE":147.412,"ARG_OF_PERICENTER":127.2294,"MEAN_ANOMALY":232.8968,"EPHEMERIS_TYPE":0,"CLASSIFICATION_TYPE":"U","NORAD_CAT_ID":65065,"ELEMENT_SET_NO":999,"REV_AT_EPOCH":3482,"BSTAR":0.00069838759,"MEAN_MOTION_DOT":0.00010035,"MEAN_MOTION_DDOT":0},{"OBJECT_NAME":"OBJECT M","OBJECT_ID":"2017-042M","EPOCH":"2026-03-09T22:38:39.337440","MEAN_MOTION":15.07991931,"ECCENTRICITY":0.0005117,"INCLINATION":97.4139,"RA_OF_ASC_NODE":234.2602,"ARG_OF_PERICENTER":83.1417,"MEAN_ANOMALY":277.0393,"EPHEMERIS_TYPE":0,"CLASSIFICATION_TYPE":"U","NORAD_CAT_ID":42836,"ELEMENT_SET_NO":999,"REV_AT_EPOCH":47205,"BSTAR":0.00047182615,"MEAN_MOTION_DOT":7.201e-5,"MEAN_MOTION_DDOT":0}]
